UNKNOWN                 
1 87334U          26077.51782416  .00013644  00000+0  74698-2 0  9994
2 87334  90.0048 271.7115 0065475 297.0423  62.4089 14.10725636400138
UNKNOWN                 
1 87335U          26077.01607318  .00014720  00000+0  79208-2 0  9995
2 87335  89.9940 267.8788 0084191 278.4270  80.7378 14.10944187400394
UNKNOWN                 
1 87405U          26077.50155403  .00002253  00000+0  15848-2 0  9998
2 87405  82.7537 344.5490 0061204  54.0644 306.6181 13.96842348624525
UNKNOWN                 
1 87426U          26077.50733978  .00003383  00000+0  12901-2 0  9992
2 87426  65.7821  74.6637 0069947 251.8849 192.8638 14.30737571636283
UNKNOWN                 
1 87448U          26070.43004977  .00001412  00000+0  11516-2 0  9993
2 87448 100.4508 292.9143 0063882 334.7571  25.0466 13.90891552621564
UNKNOWN                 
1 87456U          26075.62056912  .00003349  00000+0  48820-3 0  9994
2 87456  65.7652 201.3609 0510769 316.9482  39.2680 14.15265662624777
UNKNOWN                 
1 87517U          26077.29625329  .00001537  00000+0  44389-3 0  9994
2 87517  65.8340 359.8113 0672323 260.9869 181.9325 13.62158101605928
UNKNOWN                 
1 87541U          26060.83200558  .00000129  00000+0  33234-3 0  9999
2 87541  99.6988 275.7697 0060247  71.0193 353.3780 13.35612304592596
UNKNOWN                 
1 87553U          26076.53161036  .00001605  00000+0  52113-3 0  9990
2 87553  65.6680 126.3618 0690421 185.4567 173.8680 13.54195836604082
UNKNOWN                 
1 87557U          26076.58820303  .00003530  00000+0  77698-2 0  9991
2 87557 101.7745 309.6426 0052875 170.8751 189.3336 13.28633043577628
UNKNOWN                 
1 87561U          26073.06602036 -.00000049  00000+0 -47143-4 0  9995
2 87561 101.9941 133.0300 0175560 126.2750 348.3931 12.32165948553680
UNKNOWN                 
1 87565U          26076.23035967  .00001225  00000+0  68034-3 0  9990
2 87565  99.9526  82.1290 0170692 275.0996  83.0707 14.06293023629718
