CCSDS_OMM_VERS = 2.0
CREATION_DATE  = 
ORIGINATOR     = 

OBJECT_NAME    = UNKNOWN
OBJECT_ID      = 
CENTER_NAME    = EARTH
REF_FRAME      = TEME
TIME_SYSTEM    = UTC
MEAN_ELEMENT_THEORY = SGP/SGP4

EPOCH          = 2026-03-18T12:25:40.007424
MEAN_MOTION    = 14.10725636
ECCENTRICITY   = .0065475
INCLINATION    = 90.0048
RA_OF_ASC_NODE = 271.7115
ARG_OF_PERICENTER = 297.0423
MEAN_ANOMALY   = 62.4089

EPHEMERIS_TYPE = 0
CLASSIFICATION_TYPE = U
NORAD_CAT_ID   = 87334
ELEMENT_SET_NO = 999
REV_AT_EPOCH   = 40013
BSTAR          = .74698E-2
MEAN_MOTION_DOT = .13644E-3
MEAN_MOTION_DDOT = 0

CCSDS_OMM_VERS = 2.0
CREATION_DATE  = 
ORIGINATOR     = 

OBJECT_NAME    = UNKNOWN
OBJECT_ID      = 
CENTER_NAME    = EARTH
REF_FRAME      = TEME
TIME_SYSTEM    = UTC
MEAN_ELEMENT_THEORY = SGP/SGP4

EPOCH          = 2026-03-18T00:23:08.722752
MEAN_MOTION    = 14.10944187
ECCENTRICITY   = .0084191
INCLINATION    = 89.9940
RA_OF_ASC_NODE = 267.8788
ARG_OF_PERICENTER = 278.4270
MEAN_ANOMALY   = 80.7378

EPHEMERIS_TYPE = 0
CLASSIFICATION_TYPE = U
NORAD_CAT_ID   = 87335
ELEMENT_SET_NO = 999
REV_AT_EPOCH   = 40039
BSTAR          = .79208E-2
MEAN_MOTION_DOT = .1472E-3
MEAN_MOTION_DDOT = 0

CCSDS_OMM_VERS = 2.0
CREATION_DATE  = 
ORIGINATOR     = 

OBJECT_NAME    = UNKNOWN
OBJECT_ID      = 
CENTER_NAME    = EARTH
REF_FRAME      = TEME
TIME_SYSTEM    = UTC
MEAN_ELEMENT_THEORY = SGP/SGP4

EPOCH          = 2026-03-18T12:02:14.268192
MEAN_MOTION    = 13.96842348
ECCENTRICITY   = .0061204
INCLINATION    = 82.7537
RA_OF_ASC_NODE = 344.5490
ARG_OF_PERICENTER = 54.0644
MEAN_ANOMALY   = 306.6181

EPHEMERIS_TYPE = 0
CLASSIFICATION_TYPE = U
NORAD_CAT_ID   = 87405
ELEMENT_SET_NO = 999
REV_AT_EPOCH   = 62452
BSTAR          = .15848E-2
MEAN_MOTION_DOT = .2253E-4
MEAN_MOTION_DDOT = 0

CCSDS_OMM_VERS = 2.0
CREATION_DATE  = 
ORIGINATOR     = 

OBJECT_NAME    = UNKNOWN
OBJECT_ID      = 
CENTER_NAME    = EARTH
REF_FRAME      = TEME
TIME_SYSTEM    = UTC
MEAN_ELEMENT_THEORY = SGP/SGP4

EPOCH          = 2026-03-18T12:10:34.156992
MEAN_MOTION    = 14.30737571
ECCENTRICITY   = .0069947
INCLINATION    = 65.7821
RA_OF_ASC_NODE = 74.6637
ARG_OF_PERICENTER = 251.8849
MEAN_ANOMALY   = 192.8638

EPHEMERIS_TYPE = 0
CLASSIFICATION_TYPE = U
NORAD_CAT_ID   = 87426
ELEMENT_SET_NO = 999
REV_AT_EPOCH   = 63628
BSTAR          = .12901E-2
MEAN_MOTION_DOT = .3383E-4
MEAN_MOTION_DDOT = 0

CCSDS_OMM_VERS = 2.0
CREATION_DATE  = 
ORIGINATOR     = 

OBJECT_NAME    = UNKNOWN
OBJECT_ID      = 
CENTER_NAME    = EARTH
REF_FRAME      = TEME
TIME_SYSTEM    = UTC
MEAN_ELEMENT_THEORY = SGP/SGP4

EPOCH          = 2026-03-11T10:19:16.300128
MEAN_MOTION    = 13.90891552
ECCENTRICITY   = .0063882
INCLINATION    = 100.4508
RA_OF_ASC_NODE = 292.9143
ARG_OF_PERICENTER = 334.7571
MEAN_ANOMALY   = 25.0466

EPHEMERIS_TYPE = 0
CLASSIFICATION_TYPE = U
NORAD_CAT_ID   = 87448
ELEMENT_SET_NO = 999
REV_AT_EPOCH   = 62156
BSTAR          = .11516E-2
MEAN_MOTION_DOT = .1412E-4
MEAN_MOTION_DDOT = 0

CCSDS_OMM_VERS = 2.0
CREATION_DATE  = 
ORIGINATOR     = 

OBJECT_NAME    = UNKNOWN
OBJECT_ID      = 
CENTER_NAME    = EARTH
REF_FRAME      = TEME
TIME_SYSTEM    = UTC
MEAN_ELEMENT_THEORY = SGP/SGP4

EPOCH          = 2026-03-16T14:53:37.171968
MEAN_MOTION    = 14.15265662
ECCENTRICITY   = .0510769
INCLINATION    = 65.7652
RA_OF_ASC_NODE = 201.3609
ARG_OF_PERICENTER = 316.9482
MEAN_ANOMALY   = 39.2680

EPHEMERIS_TYPE = 0
CLASSIFICATION_TYPE = U
NORAD_CAT_ID   = 87456
ELEMENT_SET_NO = 999
REV_AT_EPOCH   = 62477
BSTAR          = .4882E-3
MEAN_MOTION_DOT = .3349E-4
MEAN_MOTION_DDOT = 0

CCSDS_OMM_VERS = 2.0
CREATION_DATE  = 
ORIGINATOR     = 

OBJECT_NAME    = UNKNOWN
OBJECT_ID      = 
CENTER_NAME    = EARTH
REF_FRAME      = TEME
TIME_SYSTEM    = UTC
MEAN_ELEMENT_THEORY = SGP/SGP4

EPOCH          = 2026-03-18T07:06:36.284256
MEAN_MOTION    = 13.62158101
ECCENTRICITY   = .0672323
INCLINATION    = 65.8340
RA_OF_ASC_NODE = 359.8113
ARG_OF_PERICENTER = 260.9869
MEAN_ANOMALY   = 181.9325

EPHEMERIS_TYPE = 0
CLASSIFICATION_TYPE = U
NORAD_CAT_ID   = 87517
ELEMENT_SET_NO = 999
REV_AT_EPOCH   = 60592
BSTAR          = .44389E-3
MEAN_MOTION_DOT = .1537E-4
MEAN_MOTION_DDOT = 0

CCSDS_OMM_VERS = 2.0
CREATION_DATE  = 
ORIGINATOR     = 

OBJECT_NAME    = UNKNOWN
OBJECT_ID      = 
CENTER_NAME    = EARTH
REF_FRAME      = TEME
TIME_SYSTEM    = UTC
MEAN_ELEMENT_THEORY = SGP/SGP4

EPOCH          = 2026-03-01T19:58:05.282112
MEAN_MOTION    = 13.35612304
ECCENTRICITY   = .0060247
INCLINATION    = 99.6988
RA_OF_ASC_NODE = 275.7697
ARG_OF_PERICENTER = 71.0193
MEAN_ANOMALY   = 353.3780

EPHEMERIS_TYPE = 0
CLASSIFICATION_TYPE = U
NORAD_CAT_ID   = 87541
ELEMENT_SET_NO = 999
REV_AT_EPOCH   = 59259
BSTAR          = .33234E-3
MEAN_MOTION_DOT = .129E-5
MEAN_MOTION_DDOT = 0

CCSDS_OMM_VERS = 2.0
CREATION_DATE  = 
ORIGINATOR     = 

OBJECT_NAME    = UNKNOWN
OBJECT_ID      = 
CENTER_NAME    = EARTH
REF_FRAME      = TEME
TIME_SYSTEM    = UTC
MEAN_ELEMENT_THEORY = SGP/SGP4

EPOCH          = 2026-03-17T12:45:31.135104
MEAN_MOTION    = 13.54195836
ECCENTRICITY   = .0690421
INCLINATION    = 65.6680
RA_OF_ASC_NODE = 126.3618
ARG_OF_PERICENTER = 185.4567
MEAN_ANOMALY   = 173.8680

EPHEMERIS_TYPE = 0
CLASSIFICATION_TYPE = U
NORAD_CAT_ID   = 87553
ELEMENT_SET_NO = 999
REV_AT_EPOCH   = 60408
BSTAR          = .52113E-3
MEAN_MOTION_DOT = .1605E-4
MEAN_MOTION_DDOT = 0

CCSDS_OMM_VERS = 2.0
CREATION_DATE  = 
ORIGINATOR     = 

OBJECT_NAME    = UNKNOWN
OBJECT_ID      = 
CENTER_NAME    = EARTH
REF_FRAME      = TEME
TIME_SYSTEM    = UTC
MEAN_ELEMENT_THEORY = SGP/SGP4

EPOCH          = 2026-03-17T14:07:00.741792
MEAN_MOTION    = 13.28633043
ECCENTRICITY   = .0052875
INCLINATION    = 101.7745
RA_OF_ASC_NODE = 309.6426
ARG_OF_PERICENTER = 170.8751
MEAN_ANOMALY   = 189.3336

EPHEMERIS_TYPE = 0
CLASSIFICATION_TYPE = U
NORAD_CAT_ID   = 87557
ELEMENT_SET_NO = 999
REV_AT_EPOCH   = 57762
BSTAR          = .77698E-2
MEAN_MOTION_DOT = .353E-4
MEAN_MOTION_DDOT = 0

CCSDS_OMM_VERS = 2.0
CREATION_DATE  = 
ORIGINATOR     = 

OBJECT_NAME    = UNKNOWN
OBJECT_ID      = 
CENTER_NAME    = EARTH
REF_FRAME      = TEME
TIME_SYSTEM    = UTC
MEAN_ELEMENT_THEORY = SGP/SGP4

EPOCH          = 2026-03-14T01:35:04.159104
MEAN_MOTION    = 12.32165948
ECCENTRICITY   = .017556
INCLINATION    = 101.9941
RA_OF_ASC_NODE = 133.0300
ARG_OF_PERICENTER = 126.2750
MEAN_ANOMALY   = 348.3931

EPHEMERIS_TYPE = 0
CLASSIFICATION_TYPE = U
NORAD_CAT_ID   = 87561
ELEMENT_SET_NO = 999
REV_AT_EPOCH   = 55368
BSTAR          = -.47143E-4
MEAN_MOTION_DOT = -.49E-6
MEAN_MOTION_DDOT = 0

CCSDS_OMM_VERS = 2.0
CREATION_DATE  = 
ORIGINATOR     = 

OBJECT_NAME    = UNKNOWN
OBJECT_ID      = 
CENTER_NAME    = EARTH
REF_FRAME      = TEME
TIME_SYSTEM    = UTC
MEAN_ELEMENT_THEORY = SGP/SGP4

EPOCH          = 2026-03-17T05:31:43.075488
MEAN_MOTION    = 14.06293023
ECCENTRICITY   = .0170692
INCLINATION    = 99.9526
RA_OF_ASC_NODE = 82.1290
ARG_OF_PERICENTER = 275.0996
MEAN_ANOMALY   = 83.0707

EPHEMERIS_TYPE = 0
CLASSIFICATION_TYPE = U
NORAD_CAT_ID   = 87565
ELEMENT_SET_NO = 999
REV_AT_EPOCH   = 62971
BSTAR          = .68034E-3
MEAN_MOTION_DOT = .1225E-4
MEAN_MOTION_DDOT = 0

